[
    {
        "Altitude(m)": 711910.8516240602,
        "Argument of Periapsis(deg)": 0.0034170363559881197,
        "Eccentricity": 0.0,
        "Inclination(deg)": 45.0,
        "Latitude(deg)": -30.537233239591735,
        "Longitude(deg)": 13.862388242543997,
        "Mean Anomaly(deg)": -45.630935005755724,
        "RAAN(deg)": 149.99677441756256,
        "Satellite Name": "Constellation 1 679",
        "Satellite Number": 679,
        "Semi-Major Axis(m)": 7083131.272910544,
        "Time(s)": 57
    },
    {
        "Altitude(m)": 711897.2336657787,
        "Argument of Periapsis(deg)": 0.003476984362233526,
        "Eccentricity": 0.0,
        "Inclination(deg)": 45.0,
        "Latitude(deg)": -30.50237581952511,
        "Longitude(deg)": 13.91582731748829,
        "Mean Anomaly(deg)": -45.57023386550584,
        "RAAN(deg)": 149.99671782839695,
        "Satellite Name": "Constellation 1 679",
        "Satellite Number": 679,
        "Semi-Major Axis(m)": 7083131.272910544,
        "Time(s)": 58
    },
    {
        "Altitude(m)": 711883.6109500792,
        "Argument of Periapsis(deg)": 0.003536932368478932,
        "Eccentricity": 0.0,
        "Inclination(deg)": 45.0,
        "Latitude(deg)": -30.467492758011712,
        "Longitude(deg)": 13.969225330515508,
        "Mean Anomaly(deg)": -45.509532725255895,
        "RAAN(deg)": 149.9966612392314,
        "Satellite Name": "Constellation 1 679",
        "Satellite Number": 679,
        "Semi-Major Axis(m)": 7083131.272910544,
        "Time(s)": 59
    },
    {
        "Altitude(m)": 711869.9835248624,
        "Argument of Periapsis(deg)": 0.003596880374724337,
        "Eccentricity": 0.0,
        "Inclination(deg)": 45.0,
        "Latitude(deg)": -30.432584107865377,
        "Longitude(deg)": 14.022582674081823,
        "Mean Anomaly(deg)": -45.448831585006005,
        "RAAN(deg)": 149.99660465006582,
        "Satellite Name": "Constellation 1 679",
        "Satellite Number": 679,
        "Semi-Major Axis(m)": 7083131.272910544,
        "Time(s)": 60
    },
    {
        "Altitude(m)": 711856.3514380363,
        "Argument of Periapsis(deg)": 0.0036568283809697427,
        "Eccentricity": 0.0,
        "Inclination(deg)": 45.0,
        "Latitude(deg)": -30.397649921828666,
        "Longitude(deg)": 14.075899236419977,
        "Mean Anomaly(deg)": -45.38813044475606,
        "RAAN(deg)": 149.99654806090027,
        "Satellite Name": "Constellation 1 679",
        "Satellite Number": 679,
        "Semi-Major Axis(m)": 7083131.272910544,
        "Time(s)": 61
    },
    {
        "Altitude(m)": 711842.714737519,
        "Argument of Periapsis(deg)": 0.003716776387215149,
        "Eccentricity": 0.0,
        "Inclination(deg)": 45.0,
        "Latitude(deg)": -30.36269025257213,
        "Longitude(deg)": 14.129175073926033,
        "Mean Anomaly(deg)": -45.32742930450621,
        "RAAN(deg)": 149.99649147173471,
        "Satellite Name": "Constellation 1 679",
        "Satellite Number": 679,
        "Semi-Major Axis(m)": 7083131.272910544,
        "Time(s)": 62
    },
    {
        "Altitude(m)": 711829.0734712306,
        "Argument of Periapsis(deg)": 0.003776724393460554,
        "Eccentricity": 0.0,
        "Inclination(deg)": 45.0,
        "Latitude(deg)": -30.327705152694143,
        "Longitude(deg)": 14.182410243062312,
        "Mean Anomaly(deg)": -45.266728164256236,
        "RAAN(deg)": 149.9964348825691,
        "Satellite Name": "Constellation 1 679",
        "Satellite Number": 679,
        "Semi-Major Axis(m)": 7083131.272910544,
        "Time(s)": 63
    },
    {
        "Altitude(m)": 711815.427687104,
        "Argument of Periapsis(deg)": 0.003836672399705959,
        "Eccentricity": 0.0,
        "Inclination(deg)": 45.0,
        "Latitude(deg)": -30.292694674721425,
        "Longitude(deg)": 14.235604800355922,
        "Mean Anomaly(deg)": -45.20602702400638,
        "RAAN(deg)": 149.99637829340355,
        "Satellite Name": "Constellation 1 679",
        "Satellite Number": 679,
        "Semi-Major Axis(m)": 7083131.272910544,
        "Time(s)": 64
    },
    {
        "Altitude(m)": 711801.777433078,
        "Argument of Periapsis(deg)": 0.003896620405951365,
        "Eccentricity": 0.0,
        "Inclination(deg)": 45.0,
        "Latitude(deg)": -30.257658871108614,
        "Longitude(deg)": 14.288758802398766,
        "Mean Anomaly(deg)": -45.14532588375653,
        "RAAN(deg)": 149.996321704238,
        "Satellite Name": "Constellation 1 679",
        "Satellite Number": 679,
        "Semi-Major Axis(m)": 7083131.272910544,
        "Time(s)": 65
    },
    {
        "Altitude(m)": 711788.1227570944,
        "Argument of Periapsis(deg)": 0.003956568412196771,
        "Eccentricity": 0.0,
        "Inclination(deg)": 45.0,
        "Latitude(deg)": -30.222597794238506,
        "Longitude(deg)": 14.341872305846495,
        "Mean Anomaly(deg)": -45.08462474350666,
        "RAAN(deg)": 149.99626511507242,
        "Satellite Name": "Constellation 1 679",
        "Satellite Number": 679,
        "Semi-Major Axis(m)": 7083131.272910544,
        "Time(s)": 66
    },
    {
        "Altitude(m)": 711774.4637071036,
        "Argument of Periapsis(deg)": 0.004016516418442176,
        "Eccentricity": 0.0,
        "Inclination(deg)": 45.0,
        "Latitude(deg)": -30.18751149642241,
        "Longitude(deg)": 14.394945199320757,
        "Mean Anomaly(deg)": -45.02392360325672,
        "RAAN(deg)": 149.99620852590687,
        "Satellite Name": "Constellation 1 679",
        "Satellite Number": 679,
        "Semi-Major Axis(m)": 7083131.272910544,
        "Time(s)": 67
    },
    {
        "Altitude(m)": 711760.8003310716,
        "Argument of Periapsis(deg)": 0.004076464424687581,
        "Eccentricity": 0.0,
        "Inclination(deg)": 45.0,
        "Latitude(deg)": -30.15240002989894,
        "Longitude(deg)": 14.44797787579662,
        "Mean Anomaly(deg)": -44.963222463006836,
        "RAAN(deg)": 149.99615193674126,
        "Satellite Name": "Constellation 1 679",
        "Satellite Number": 679,
        "Semi-Major Axis(m)": 7083131.272910544,
        "Time(s)": 68
    },
    {
        "Altitude(m)": 711747.1326769548,
        "Argument of Periapsis(deg)": 0.004136412430932987,
        "Eccentricity": 0.0,
        "Inclination(deg)": 45.0,
        "Latitude(deg)": -30.11726344683571,
        "Longitude(deg)": 14.50097022401999,
        "Mean Anomaly(deg)": -44.902521322756876,
        "RAAN(deg)": 149.9960953475757,
        "Satellite Name": "Constellation 1 679",
        "Satellite Number": 679,
        "Semi-Major Axis(m)": 7083131.272910544,
        "Time(s)": 69
    },
    {
        "Altitude(m)": 711733.4607927268,
        "Argument of Periapsis(deg)": 0.004196360437178394,
        "Eccentricity": 0.0,
        "Inclination(deg)": 45.0,
        "Latitude(deg)": -30.08210179932845,
        "Longitude(deg)": 14.553922300894598,
        "Mean Anomaly(deg)": -44.84182018250703,
        "RAAN(deg)": 149.99603875841015,
        "Satellite Name": "Constellation 1 679",
        "Satellite Number": 679,
        "Semi-Major Axis(m)": 7083131.272910544,
        "Time(s)": 70
    },
    {
        "Altitude(m)": 711719.7847263637,
        "Argument of Periapsis(deg)": 0.004256308443423799,
        "Eccentricity": 0.0,
        "Inclination(deg)": 45.0,
        "Latitude(deg)": -30.046915139400898,
        "Longitude(deg)": 14.606834163384844,
        "Mean Anomaly(deg)": -44.78111904225705,
        "RAAN(deg)": 149.99598216924457,
        "Satellite Name": "Constellation 1 679",
        "Satellite Number": 679,
        "Semi-Major Axis(m)": 7083131.272910544,
        "Time(s)": 71
    },
    {
        "Altitude(m)": 711706.1045258493,
        "Argument of Periapsis(deg)": 0.004316256449669204,
        "Eccentricity": 0.0,
        "Inclination(deg)": 45.0,
        "Latitude(deg)": -30.011703519005362,
        "Longitude(deg)": 14.659705868514425,
        "Mean Anomaly(deg)": -44.720417902007206,
        "RAAN(deg)": 149.99592558007902,
        "Satellite Name": "Constellation 1 679",
        "Satellite Number": 679,
        "Semi-Major Axis(m)": 7083131.272910544,
        "Time(s)": 72
    },
    {
        "Altitude(m)": 711692.4202391644,
        "Argument of Periapsis(deg)": 0.00437620445591461,
        "Eccentricity": 0.0,
        "Inclination(deg)": 45.0,
        "Latitude(deg)": -29.976466990022253,
        "Longitude(deg)": 14.71253747336629,
        "Mean Anomaly(deg)": -44.65971676175736,
        "RAAN(deg)": 149.99586899091344,
        "Satellite Name": "Constellation 1 679",
        "Satellite Number": 679,
        "Semi-Major Axis(m)": 7083131.272910544,
        "Time(s)": 73
    },
    {
        "Altitude(m)": 711678.7319143139,
        "Argument of Periapsis(deg)": 0.004436152462160016,
        "Eccentricity": 0.0,
        "Inclination(deg)": 45.0,
        "Latitude(deg)": -29.941205604260713,
        "Longitude(deg)": 14.76532886698466,
        "Mean Anomaly(deg)": -44.599015621507476,
        "RAAN(deg)": 149.99581240174786,
        "Satellite Name": "Constellation 1 679",
        "Satellite Number": 679,
        "Semi-Major Axis(m)": 7083131.272910544,
        "Time(s)": 74
    },
    {
        "Altitude(m)": 711665.0395992843,
        "Argument of Periapsis(deg)": 0.0044961004684054215,
        "Eccentricity": 0.0,
        "Inclination(deg)": 45.0,
        "Latitude(deg)": -29.905919413457294,
        "Longitude(deg)": 14.818080442762646,
        "Mean Anomaly(deg)": -44.53831448125753,
        "RAAN(deg)": 149.9957558125823,
        "Satellite Name": "Constellation 1 679",
        "Satellite Number": 679,
        "Semi-Major Axis(m)": 7083131.272910544,
        "Time(s)": 75
    }
]